GLOBALSTAR M063 [+]     
1 26081U 00008A   23345.69621458 -.00000095  00000+0 -17963-3 0  9997
2 26081  51.9929 129.2376 0003818 346.8972 114.3519 11.86148666 91891
GLOBALSTAR M060 [-]     
1 26083U 00008C   23345.80020123 -.00000103  00000+0 -11975-3 0  9991
2 26083  51.9987 164.7873 0004742  83.9198  18.2345 12.17621503 84958
GLOBALSTAR M065 [+]     
1 31571U 07020A   23345.69316081 -.00000088  00000+0  85647-4 0  9997
2 31571  51.9884 110.8480 0010505 158.6324 309.2990 12.61960453763528
GLOBALSTAR M069 [+]     
1 31573U 07020C   23345.57419937 -.00000097  00000+0  39219-4 0  9994
2 31573  51.9965  67.2813 0000665 147.1969 320.9747 12.62261851764639
GLOBALSTAR M072 [+]     
1 31574U 07020D   23345.80640872 -.00000106  00000+0 -10245-4 0  9995
2 31574  52.0065 162.3459 0001622  99.9030   2.0919 12.62269347762931
GLOBALSTAR M071 [P]     
1 31576U 07020F   23345.43605865 -.00000095  00000+0  48840-4 0  9997
2 31576  52.0077  72.7200 0000461 116.1565 323.4117 12.62273930425804
